0 COSMOS 886 DEB
1 09960U 76126BA  13281.85396582  .00000607  00000-0  52216-3 0  9922
2 09960 065.8678 171.1966 0885415 168.8472 276.2636 12.81085432701244
0 COSMOS 886 DEB
1 09960U 76126BA  13282.86846169  .00000623  00000-0  53435-3 0  9938
2 09960 065.8677 169.0410 0885347 168.4085 275.0315 12.81088317701373
0 COSMOS 886 DEB
1 09960U 76126BA  13283.70961529  .00000955  00000-0  73990-3 0  9958
2 09960 065.8685 167.2566 0885621 168.0529 194.3518 12.81087848701486
0 COSMOS 886 DEB
1 09960U 76126BA  13284.04598197  .00000784  00000-0  66009-3 0  9945
2 09960 065.8677 166.5390 0885300 167.8974 305.6610 12.81089066701528
0 COSMOS 886 DEB
1 09960U 76126BA  13286.14872810  .00000778  00000-0  65526-3 0  9963
2 09960 065.8674 162.0713 0885163 166.9904 283.3707 12.81091694701793
0 COSMOS 886 DEB
1 09960U 76126BA  13287.78864446  .00000982  00000-0  81391-3 0  9976
2 09960 065.8671 158.5869 0885068 166.2816 286.5548 12.81094823702001
0 COSMOS 886 DEB
1 09960U 76126BA  13289.11503626  .00000996  00000-0  82543-3 0  9981
2 09960 065.8670 155.7687 0885002 165.7093 283.8004 12.81098242702170
0 COSMOS 886 DEB
1 09960U 76126BA  13290.13039595  .00000964  00000-0  80046-3 0  9996
2 09960 065.8667 153.6110 0884892 165.2725 286.5912 12.81100057702308
0 COSMOS 886 DEB
1 09960U 76126BA  13290.73563829  .00001208  00000-0  93750-3 0    27
2 09960 065.8675 152.3266 0885094 165.0244 197.9355 12.81100242702384
0 COSMOS 886 DEB
1 09960U 76126BA  13291.14529061  .00000938  00000-0  78059-3 0    05
2 09960 065.8667 151.4545 0884812 164.8348 287.2460 12.81102449702431
0 COSMOS 886 DEB
1 09960U 76126BA  13292.86584683  .00001202  00000-0  98601-3 0    17
2 09960 065.8668 147.7985 0884685 164.0916 302.4110 12.81105033702657
0 COSMOS 886 DEB
1 09960U 76126BA  13294.11206145  .00001174  00000-0  96469-3 0    20
2 09960 065.8668 145.1505 0884606 163.5532 289.9303 12.81108671702810
0 COSMOS 886 DEB
1 09960U 76126BA  13295.83092308  .00001426  00000-0  11615-2 0    34
2 09960 065.8669 141.4983 0884482 162.8107 297.3177 12.81111704703030
